{
  "norad_id": 49459,
  "name": "STARLINK-3141",
  "history": [
    {
      "epoch": "2026-03-28T12:46:38.377632Z",
      "apogee_km": 540.5761131038535,
      "perigee_km": 538.9163745559945,
      "latitude_deg": -5.686606781499698e-05,
      "longitude_deg": 116.9236689553282,
      "height_km": 540.549902234472,
      "semi_major_axis_km": 6917.883243829924,
      "eccentricity": 0.00011996,
      "inclination_deg": 53.2162,
      "raan_deg": 134.5351,
      "arg_perigee_deg": 83.6239,
      "mean_anomaly_deg": 276.4889,
      "mean_motion_rev_day": 15.08839066
    }
  ]
}